{
  "type": "FeatureCollection",
  "features": [
    {
      "type": "Feature",
      "properties": {
        "norad_id": 57400,
        "name": "TIANMU-1 08",
        "group": "weather",
        "lat": -50.895331608100925,
        "lon": -150.75383366733982,
        "alt_km": 493.0942928521672,
        "timestamp": "2025-12-14T16:47:40.326476+00:00",
        "meta_object_name": "TIANMU-1 08",
        "meta_object_id": "2023-101B",
        "meta_epoch": "2025-12-14T00:04:09.871392",
        "meta_mean_motion": 15.2808084,
        "meta_eccentricity": 0.00074992,
        "meta_inclination": 97.2871,
        "meta_ra_of_asc_node": 37.6226,
        "meta_arg_of_pericenter": 80.5522,
        "meta_mean_anomaly": 279.6566,
        "meta_ephemeris_type": 0,
        "meta_classification_type": "U",
        "meta_norad_cat_id": 57400,
        "meta_element_set_no": 999,
        "meta_rev_at_epoch": 13334,
        "meta_bstar": 0.00030487121,
        "meta_mean_motion_dot": 8.283e-05,
        "meta_mean_motion_ddot": 0,
        "tle_line1": "1 57400U 23101B   25348.00289203  .00008283  00000+0  30487-3 0  9994",
        "tle_line2": "2 57400  97.2871  37.6226 0007499  80.5522 279.6566 15.28080840133340"
      },
      "geometry": {
        "type": "Point",
        "coordinates": [
          -150.75383366733982,
          -50.895331608100925
        ]
      }
    },
    {
      "type": "Feature",
      "properties": {
        "norad_id": 57401,
        "name": "TIANMU-1 09",
        "group": "weather",
        "lat": -55.247353438668306,
        "lon": 48.43856676417408,
        "alt_km": 491.73734306521874,
        "timestamp": "2025-12-14T16:47:40.326487+00:00",
        "meta_object_name": "TIANMU-1 09",
        "meta_object_id": "2023-101C",
        "meta_epoch": "2025-12-13T23:45:05.958720",
        "meta_mean_motion": 15.28110763,
        "meta_eccentricity": 0.00067854,
        "meta_inclination": 97.2827,
        "meta_ra_of_asc_node": 37.1225,
        "meta_arg_of_pericenter": 80.4916,
        "meta_mean_anomaly": 279.7091,
        "meta_ephemeris_type": 0,
        "meta_classification_type": "U",
        "meta_norad_cat_id": 57401,
        "meta_element_set_no": 999,
        "meta_rev_at_epoch": 13334,
        "meta_bstar": 0.00030581741,
        "meta_mean_motion_dot": 8.316e-05,
        "meta_mean_motion_ddot": 0,
        "tle_line1": "1 57401U 23101C   25347.98965230  .00008316  00000+0  30582-3 0  9995",
        "tle_line2": "2 57401  97.2827  37.1225 0006785  80.4916 279.7091 15.28110763133341"
      },
      "geometry": {
        "type": "Point",
        "coordinates": [
          48.43856676417408,
          -55.247353438668306
        ]
      }
    },
    {
      "type": "Feature",
      "properties": {
        "norad_id": 57402,
        "name": "TIANMU-1 10",
        "group": "weather",
        "lat": 62.89177060564048,
        "lon": -126.84794759321444,
        "alt_km": 470.81796645234044,
        "timestamp": "2025-12-14T16:47:40.326497+00:00",
        "meta_object_name": "TIANMU-1 10",
        "meta_object_id": "2023-101D",
        "meta_epoch": "2025-12-13T23:00:04.946976",
        "meta_mean_motion": 15.28101345,
        "meta_eccentricity": 0.00084846,
        "meta_inclination": 97.2908,
        "meta_ra_of_asc_node": 37.943,
        "meta_arg_of_pericenter": 79.8985,
        "meta_mean_anomaly": 280.3211,
        "meta_ephemeris_type": 0,
        "meta_classification_type": "U",
        "meta_norad_cat_id": 57402,
        "meta_element_set_no": 999,
        "meta_rev_at_epoch": 13333,
        "meta_bstar": 0.00034053998,
        "meta_mean_motion_dot": 9.27e-05,
        "meta_mean_motion_ddot": 0,
        "tle_line1": "1 57402U 23101D   25347.95839059  .00009270  00000+0  34054-3 0  9990",
        "tle_line2": "2 57402  97.2908  37.9430 0008484  79.8985 280.3211 15.28101345133331"
      },
      "geometry": {
        "type": "Point",
        "coordinates": [
          -126.84794759321444,
          62.89177060564048
        ]
      }
    },
    {
      "type": "Feature",
      "properties": {
        "norad_id": 57490,
        "name": "FENGYUN 3F",
        "group": "weather",
        "lat": -26.224758395199068,
        "lon": 61.291321137810456,
        "alt_km": 831.6418268579246,
        "timestamp": "2025-12-14T16:47:40.326507+00:00",
        "meta_object_name": "FENGYUN 3F",
        "meta_object_id": "2023-111A",
        "meta_epoch": "2025-12-14T00:00:25.666848",
        "meta_mean_motion": 14.1989395,
        "meta_eccentricity": 6.772e-05,
        "meta_inclination": 98.7082,
        "meta_ra_of_asc_node": 56.2734,
        "meta_arg_of_pericenter": 104.4235,
        "meta_mean_anomaly": 255.7017,
        "meta_ephemeris_type": 0,
        "meta_classification_type": "U",
        "meta_norad_cat_id": 57490,
        "meta_element_set_no": 999,
        "meta_rev_at_epoch": 12258,
        "meta_bstar": 7.5688988e-05,
        "meta_mean_motion_dot": 1.17e-06,
        "meta_mean_motion_ddot": 0,
        "tle_line1": "1 57490U 23111A   25348.00029707  .00000117  00000+0  75689-4 0  9997",
        "tle_line2": "2 57490  98.7082  56.2734 0000677 104.4235 255.7017 14.19893950122581"
      },
      "geometry": {
        "type": "Point",
        "coordinates": [
          61.291321137810456,
          -26.224758395199068
        ]
      }
    },
    {
      "type": "Feature",
      "properties": {
        "norad_id": 58584,
        "name": "ARKTIKA-M 2",
        "group": "weather",
        "lat": 48.18426747447162,
        "lon": -39.704838537907946,
        "alt_km": 25560.42432366605,
        "timestamp": "2025-12-14T16:47:40.326521+00:00",
        "meta_object_name": "ARKTIKA-M 2",
        "meta_object_id": "2023-198A",
        "meta_epoch": "2025-12-08T20:10:13.977120",
        "meta_mean_motion": 2.0060476,
        "meta_eccentricity": 0.68646991,
        "meta_inclination": 63.2247,
        "meta_ra_of_asc_node": 175.3152,
        "meta_arg_of_pericenter": 268.1185,
        "meta_mean_anomaly": 18.8267,
        "meta_ephemeris_type": 0,
        "meta_classification_type": "U",
        "meta_norad_cat_id": 58584,
        "meta_element_set_no": 999,
        "meta_rev_at_epoch": 1450,
        "meta_bstar": 0,
        "meta_mean_motion_dot": 1.66e-06,
        "meta_mean_motion_ddot": 0,
        "tle_line1": "1 58584U 23198A   25342.84043955  .00000166  00000+0  00000+0 0  9998",
        "tle_line2": "2 58584  63.2247 175.3152 6864699 268.1185  18.8267  2.00604760 14506"
      },
      "geometry": {
        "type": "Point",
        "coordinates": [
          -39.704838537907946,
          48.18426747447162
        ]
      }
    },
    {
      "type": "Feature",
      "properties": {
        "norad_id": 58645,
        "name": "TIANMU-1 11",
        "group": "weather",
        "lat": -82.60642341345103,
        "lon": 93.32937188130873,
        "alt_km": 494.71369673741265,
        "timestamp": "2025-12-14T16:47:40.326536+00:00",
        "meta_object_name": "TIANMU-1 11",
        "meta_object_id": "2023-205A",
        "meta_epoch": "2025-12-13T23:51:31.326912",
        "meta_mean_motion": 15.24621187,
        "meta_eccentricity": 0.00078112,
        "meta_inclination": 97.3611,
        "meta_ra_of_asc_node": 7.5955,
        "meta_arg_of_pericenter": 305.1936,
        "meta_mean_anomaly": 54.857,
        "meta_ephemeris_type": 0,
        "meta_classification_type": "U",
        "meta_norad_cat_id": 58645,
        "meta_element_set_no": 999,
        "meta_rev_at_epoch": 10928,
        "meta_bstar": 0.0003081262,
        "meta_mean_motion_dot": 7.539e-05,
        "meta_mean_motion_ddot": 0,
        "tle_line1": "1 58645U 23205A   25347.99411258  .00007539  00000+0  30813-3 0  9991",
        "tle_line2": "2 58645  97.3611   7.5955 0007811 305.1936  54.8570 15.24621187109288"
      },
      "geometry": {
        "type": "Point",
        "coordinates": [
          93.32937188130873,
          -82.60642341345103
        ]
      }
    },
    {
      "type": "Feature",
      "properties": {
        "norad_id": 58646,
        "name": "TIANMU-1 12",
        "group": "weather",
        "lat": 57.145331520364486,
        "lon": -160.36066560240573,
        "alt_km": 490.5957091340624,
        "timestamp": "2025-12-14T16:47:40.326546+00:00",
        "meta_object_name": "TIANMU-1 12",
        "meta_object_id": "2023-205B",
        "meta_epoch": "2025-12-14T00:30:27.893088",
        "meta_mean_motion": 15.24503875,
        "meta_eccentricity": 0.00058342,
        "meta_inclination": 97.3599,
        "meta_ra_of_asc_node": 7.4272,
        "meta_arg_of_pericenter": 285.6476,
        "meta_mean_anomaly": 74.4118,
        "meta_ephemeris_type": 0,
        "meta_classification_type": "U",
        "meta_norad_cat_id": 58646,
        "meta_element_set_no": 999,
        "meta_rev_at_epoch": 10927,
        "meta_bstar": 0.00030784834,
        "meta_mean_motion_dot": 7.503e-05,
        "meta_mean_motion_ddot": 0,
        "tle_line1": "1 58646U 23205B   25348.02115617  .00007503  00000+0  30785-3 0  9996",
        "tle_line2": "2 58646  97.3599   7.4272 0005834 285.6476  74.4118 15.24503875109277"
      },
      "geometry": {
        "type": "Point",
        "coordinates": [
          -160.36066560240573,
          57.145331520364486
        ]
      }
    }
  ]
}